norad_id,name,regime,epoch,line1,line2,inclination,eccentricity,mean_motion,raan,arg_pericenter,mean_anomaly
28082,CHINASAT 20,EGO,25165.91584330,1 28082U 03052A   25165.91584330 -.00000283  00000-0  00000-0 0    10,2 28082   9.6593  53.2791 0004412 102.7484 214.6970  0.99113057 78748,9.6593,0.0004412,0.99113057,53.2791,102.7484,214.697
28082,CHINASAT 20,EGO,25166.54836317,1 28082U 03052A   25166.54836317 -.00000278  00000-0  00000-0 0    19,2 28082   9.6606  53.2734 0004448 103.4150  79.7268  0.99112708 78750,9.6606,0.0004448,0.99112708,53.2734,103.415,79.7268
28082,CHINASAT 20,EGO,25166.87385071,1 28082U 03052A   25166.87385071 -.00000275  00000-0  00000-0 0    18,2 28082   9.6612  53.2705 0004454 103.7348 195.5476  0.99112500 78752,9.6612,0.0004454,0.991125,53.2705,103.7348,195.5476
28082,CHINASAT 20,EGO,25167.54059659,1 28082U 03052A   25167.54059659 -.00000267  00000-0  00000-0 0    14,2 28082   9.6626  53.2644 0004480 104.4196  72.7705  0.99112116 78762,9.6626,0.000448,0.99112116,53.2644,104.4196,72.7705
28082,CHINASAT 20,EGO,25167.91405162,1 28082U 03052A   25167.91405162 -.00000261  00000-0  00000-0 0    13,2 28082   9.6634  53.2610 0004487 104.8168 205.6289  0.99111870 78764,9.6634,0.0004487,0.9911187,53.261,104.8168,205.6289
28082,CHINASAT 20,EGO,25168.67003537,1 28082U 03052A   25168.67003537 -.00000249  00000-0  00000-0 0    13,2 28082   9.6651  53.2541 0004509 105.5736 114.6199  0.99111400 78779,9.6651,0.0004509,0.991114,53.2541,105.5736,114.6199
28082,CHINASAT 20,EGO,25169.59933131,1 28082U 03052A   25169.59933131 -.00000231  00000-0  00000-0 0    18,2 28082   9.6671  53.2457 0004522 106.4908  85.2896  0.99110847 78785,9.6671,0.0004522,0.99110847,53.2457,106.4908,85.2896
28082,CHINASAT 20,EGO,25170.59795049,1 28082U 03052A   25170.59795049 -.00000209  00000-0  00000-0 0    19,2 28082   9.6694  53.2367 0004537 107.4766  80.6239  0.99110219 78793,9.6694,0.0004537,0.99110219,53.2367,107.4766,80.6239
28082,CHINASAT 20,EGO,25170.64072456,1 28082U 03052A   25170.64072456 -.00000208  00000-0  00000-0 0    14,2 28082   9.6695  53.2363 0004539 107.5245  95.8382  0.99110191 78791,9.6695,0.0004539,0.99110191,53.2363,107.5245,95.8382
28082,CHINASAT 20,EGO,25171.02580762,1 28082U 03052A   25171.02580762 -.00000199  00000-0  00000+0 0  8758,2 28082   9.6704  53.2328 0004547 108.0059 232.7589  0.99109938 78812,9.6704,0.0004547,0.99109938,53.2328,108.0059,232.7589
28082,CHINASAT 20,EGO,25171.08100344,1 28082U 03052A   25171.08100344 -.00000198  00000-0  00000-0 0    19,2 28082   9.6705  53.2324 0004551 108.0776 252.3814  0.99109891 78794,9.6705,0.0004551,0.99109891,53.2324,108.0776,252.3814
28082,CHINASAT 20,EGO,25171.80662100,1 28082U 03052A   25171.80662100 -.00000181  00000-0  00000-0 0    14,2 28082   9.6722  53.2258 0004560 108.6625 150.7037  0.99109468 78808,9.6722,0.000456,0.99109468,53.2258,108.6625,150.7037
28082,CHINASAT 20,EGO,25172.58424083,1 28082U 03052A   25172.58424083 -.00000161  00000-0  00000-0 0    14,2 28082   9.6741  53.2191 0004564 109.2555  67.5725  0.99109141 78816,9.6741,0.0004564,0.99109141,53.2191,109.2555,67.5725
28082,CHINASAT 20,EGO,25172.71222311,1 28082U 03052A   25172.71222311 -.00000158  00000-0  00000-0 0    15,2 28082   9.6744  53.2180 0004560 109.3148 113.1780  0.99109051 78811,9.6744,0.000456,0.99109051,53.218,109.3148,113.178
28082,CHINASAT 20,EGO,25173.10877940,1 28082U 03052A   25173.10877940 -.00000148  00000-0  00000+0 0  8761,2 28082   9.6753  53.2146 0004563 109.6665 254.3203  0.99108843 78831,9.6753,0.0004563,0.99108843,53.2146,109.6665,254.3203
28082,CHINASAT 20,EGO,25173.59378976,1 28082U 03052A   25173.59378976 -.00000136  00000-0  00000-0 0    17,2 28082   9.6765  53.2104 0004560 109.8688  67.1726  0.99108646 78822,9.6765,0.000456,0.99108646,53.2104,109.8688,67.1726
28082,CHINASAT 20,EGO,25174.58669152,1 28082U 03052A   25174.58669152 -.00000110  00000-0  00000-0 0    18,2 28082   9.6788  53.2019 0004552 110.2512  61.0624  0.99108244 78830,9.6788,0.0004552,0.99108244,53.2019,110.2512,61.0624
28082,CHINASAT 20,EGO,25174.66370351,1 28082U 03052A   25174.66370351 -.00000108  00000-0  00000-0 0    14,2 28082   9.6790  53.2012 0004549 110.2536  88.5380  0.99108205 78838,9.679,0.0004549,0.99108205,53.2012,110.2536,88.538
28082,CHINASAT 20,EGO,25175.68367828,1 28082U 03052A   25175.68367828 -.00000081  00000-0  00000-0 0    12,2 28082   9.6814  53.1924 0004541 110.3770  92.3450  0.99107848 78843,9.6814,0.0004541,0.99107848,53.1924,110.377,92.345
28082,CHINASAT 20,EGO,25176.62840620,1 28082U 03052A   25176.62840620 -.00000057  00000-0  00000-0 0    16,2 28082   9.6836  53.1843 0004534 110.2724  69.5308  0.99107625 78859,9.6836,0.0004534,0.99107625,53.1843,110.2724,69.5308
28082,CHINASAT 20,EGO,25176.67235451,1 28082U 03052A   25176.67235451 -.00000055  00000-0  00000-0 0    19,2 28082   9.6837  53.1839 0004534 110.2529  85.2311  0.99107602 78852,9.6837,0.0004534,0.99107602,53.1839,110.2529,85.2311
28082,CHINASAT 20,EGO,25177.58794409,1 28082U 03052A   25177.58794409 -.00000032  00000-0  00000-0 0    18,2 28082   9.6858  53.1761 0004531 109.9928  52.1749  0.99107437 78869,9.6858,0.0004531,0.99107437,53.1761,109.9928,52.1749
28082,CHINASAT 20,EGO,25177.82171493,1 28082U 03052A   25177.82171493 -.00000026  00000-0  00000-0 0    10,2 28082   9.6864  53.1740 0004528 109.8079 135.7693  0.99107381 78869,9.6864,0.0004528,0.99107381,53.174,109.8079,135.7693
28082,CHINASAT 20,EGO,25178.08723814,1 28082U 03052A   25178.08723814 -.00000020  00000-0  00000-0 0    13,2 28082   9.6870  53.1718 0004534 109.7512 230.5645  0.99107314 78866,9.687,0.0004534,0.99107314,53.1718,109.7512,230.5645
28082,CHINASAT 20,EGO,25178.89814255,1 28082U 03052A   25178.89814255  .00000000  00000-0  00000-0 0    19,2 28082   9.6888  53.1647 0004545 109.3346 160.3129  0.99107316 78879,9.6888,0.0004545,0.99107316,53.1647,109.3346,160.3129
28082,CHINASAT 20,EGO,25179.10059911,1 28082U 03052A   25179.10059911  .00000005  00000-0  00000-0 0    19,2 28082   9.6893  53.1631 0004547 109.2551 232.6290  0.99107300 78872,9.6893,0.0004547,0.991073,53.1631,109.2551,232.629
28082,CHINASAT 20,EGO,25179.84095819,1 28082U 03052A   25179.84095819  .00000022  00000-0  00000-0 0    16,2 28082   9.6909  53.1567 0004561 108.8579 137.1871  0.99107341 78889,9.6909,0.0004561,0.99107341,53.1567,108.8579,137.1871
28082,CHINASAT 20,EGO,25180.15560605,1 28082U 03052A   25180.15560605  .00000028  00000-0  00000-0 0    18,2 28082   9.6916  53.1541 0004566 108.6795 249.6320  0.99107351 78881,9.6916,0.0004566,0.99107351,53.1541,108.6795,249.632
28082,CHINASAT 20,EGO,25180.88127505,1 28082U 03052A   25180.88127505  .00000043  00000-0  00000-0 0    13,2 28082   9.6931  53.1477 0004578 108.2545 148.9763  0.99107413 78890,9.6931,0.0004578,0.99107413,53.1477,108.2545,148.9763
28082,CHINASAT 20,EGO,25181.01422468,1 28082U 03052A   25181.01422468  .00000045  00000-0  00000-0 0    17,2 28082   9.6934  53.1466 0004581 108.1350 196.5322  0.99107438 78895,9.6934,0.0004581,0.99107438,53.1466,108.135,196.5322
28082,CHINASAT 20,EGO,25181.85870852,1 28082U 03052A   25181.85870852  .00000059  00000-0  00000-0 0    18,2 28082   9.6951  53.1391 0004601 107.7157 138.2650  0.99107585 78906,9.6951,0.0004601,0.99107585,53.1391,107.7157,138.265
28082,CHINASAT 20,EGO,25182.87959683,1 28082U 03052A   25182.87959683  .00000073  00000-0  00000-0 0    17,2 28082   9.6972  53.1299 0004630 107.1444 143.0917  0.99107837 78912,9.6972,0.000463,0.99107837,53.1299,107.1444,143.0917
28082,CHINASAT 20,EGO,25183.16433626,1 28082U 03052A   25183.16433626  .00000075  00000-0  00000-0 0    16,2 28082   9.6977  53.1273 0004641 106.8957 244.9365  0.99107939 78917,9.6977,0.0004641,0.99107939,53.1273,106.8957,244.9365
28082,CHINASAT 20,EGO,25183.91704691,1 28082U 03052A   25183.91704691  .00000081  00000-0  00000-0 0    19,2 28082   9.6992  53.1205 0004665 106.6377 153.7642  0.99108126 78924,9.6992,0.0004665,0.99108126,53.1205,106.6377,153.7642
28082,CHINASAT 20,EGO,25184.14989478,1 28082U 03052A   25184.14989478  .00000083  00000-0  00000-0 0    15,2 28082   9.6997  53.1182 0004679 106.4670 237.0160  0.99108221 78929,9.6997,0.0004679,0.99108221,53.1182,106.467,237.016
28082,CHINASAT 20,EGO,25184.77253935,1 28082U 03052A   25184.77253935  .00000085  00000-0  00000-0 0    18,2 28082   9.7009  53.1124 0004703 106.3489  99.2971  0.99108430 78936,9.7009,0.0004703,0.9910843,53.1124,106.3489,99.2971
28082,CHINASAT 20,EGO,25185.21971147,1 28082U 03052A   25185.21971147  .00000085  00000-0  00000-0 0    10,2 28082   9.7018  53.1083 0004727 106.1373 259.0621  0.99108623 78949,9.7018,0.0004727,0.99108623,53.1083,106.1373,259.0621
28082,CHINASAT 20,EGO,25185.71899873,1 28082U 03052A   25185.71899873  .00000084  00000-0  00000-0 0    19,2 28082   9.7028  53.1036 0004749 106.1043  77.2439  0.99108784 78941,9.7028,0.0004749,0.99108784,53.1036,106.1043,77.2439
28082,CHINASAT 20,EGO,25186.21829803,1 28082U 03052A   25186.21829803  .00000082  00000-0  00000-0 0    19,2 28082   9.7037  53.0990 0004775 105.9889 255.5129  0.99109014 78958,9.7037,0.0004775,0.99109014,53.099,105.9889,255.5129
28082,CHINASAT 20,EGO,25186.71754644,1 28082U 03052A   25186.71754644  .00000079  00000-0  00000-0 0    10,2 28082   9.7047  53.0944 0004801 106.0074  73.6299  0.99109186 78953,9.7047,0.0004801,0.99109186,53.0944,106.0074,73.6299
28082,CHINASAT 20,EGO,25187.76176876,1 28082U 03052A   25187.76176876  .00000069  00000-0  00000-0 0    10,2 28082   9.7067  53.0847 0004857 106.0803  86.1443  0.99109576 78962,9.7067,0.0004857,0.99109576,53.0847,106.0803,86.1443
28082,CHINASAT 20,EGO,25188.78595316,1 28082U 03052A   25188.78595316  .00000055  00000-0  00000-0 0    12,2 28082   9.7087  53.0753 0004918 106.3742  91.2899  0.99110008 78978,9.7087,0.0004918,0.99110008,53.0753,106.3742,91.2899
28082,CHINASAT 20,EGO,25189.21397234,1 28082U 03052A   25189.21397234  .00000048  00000-0  00000-0 0    12,2 28082   9.7096  53.0714 0004934 106.5048 243.8813  0.99110184 78970,9.7096,0.0004934,0.99110184,53.0714,106.5048,243.8813
